INTELSAT 10 (IS-10)     
1 26766U 01019A   26035.04021726 -.00000036  00000+0  00000+0 0  9994
2 26766   8.7570  60.6079 0008434 252.6678 104.5252  0.99072725 44254
INTELSAT 902 (IS-902)   
1 26900U 01039A   26042.03752375 -.00000278  00000+0  00000+0 0  9992
2 26900   5.7985  73.3340 0004634 248.6599 142.4984  1.00272457 89437
INTELSAT 904 (IS-904)   
1 27380U 02007A   26041.96992340 -.00000221  00000+0  00000+0 0  9998
2 27380   6.6040  70.7106 0005111 297.9511  90.0238  1.00271701 50502
DIRECTV 5 (TEMPO 1)     
1 27426U 02023A   26042.16830443 -.00000052  00000+0  00000+0 0  9997
2 27426   4.5553  76.9047 0003503 262.5555 112.2362  1.00272977 86869
INTELSAT 905 (IS-905)   
1 27438U 02027A   26042.16301774  .00000099  00000+0  00000+0 0  9994
2 27438   6.4363  71.3296 0002967 262.6574  88.7146  1.00273578 50093
GALAXY 3C (G-3C)        
1 27445U 02030A   26042.17133778 -.00000146  00000+0  00000+0 0  9998
2 27445   3.4116  79.7675 0000938  38.9442 349.3523  1.00272273 45237
INTELSAT 906 (IS-906)   
1 27513U 02041A   26042.20279796  .00000018  00000+0  00000+0 0  9998
2 27513   5.4825  74.4865 0004014 225.1893 338.7321  1.00271257 85765
GALAXY 13 (HORIZONS-1)  
1 27954U 03044A   26042.16041773  .00000140  00000+0  00000+0 0  9994
2 27954   1.0924  85.6480 0002361 225.0132  98.3102  1.00272161 45308
INTELSAT 10-02          
1 28358U 04022A   26042.20184628 -.00000002  00000+0  00000+0 0  9990
2 28358   0.0135 103.8239 0000725 260.2631 208.8278  1.00273962 79299
DIRECTV 8               
1 28659U 05019A   26042.16657109  .00000010  00000+0  00000+0 0  9993
2 28659   0.0280  92.4804 0003194 252.3021  97.3447  1.00272301 75801
GALAXY 28 (G-28)        
1 28702U 05022A   26042.18459785 -.00000170  00000+0  00000+0 0  9996
2 28702   2.9739  80.5394 0002144 248.7358 210.2996  1.00479774 50719
GALAXY 16 (G-16)        
1 29236U 06023A   26042.21411545 -.00000118  00000+0  00000+0 0  9999
2 29236   0.0253 159.2199 0002704 174.8818 145.2274  1.00271509 71716
DIRECTV 9S              
1 29494U 06043A   26042.23438001 -.00000106  00000+0  00000+0 0  9992
2 29494   2.0951  82.5011 0003092 254.8049 147.1426  1.00272388 50124
GALAXY 17 (G-17)        
1 31307U 07016B   26042.17333112 -.00000200  00000+0  00000+0 0  9994
2 31307   2.6519  81.5407 0003961 225.6369 171.4452  1.00271610 68541
DIRECTV 10              
1 31862U 07032A   26038.67517042  .00000079  00000+0  00000+0 0  9997
2 31862   0.0673 108.0959 0023568 314.6392 181.0071  0.99136391 44290
INTELSAT 11 (IS-11)     
1 32253U 07044B   26042.23198360 -.00000224  00000+0  00000+0 0  9993
2 32253   3.2365  80.2484 0006224 195.5926 268.6849  0.99052255 67208
HORIZONS-2              
1 32388U 07063B   26042.15118266 -.00000246  00000+0  00000+0 0  9995
2 32388   2.2766  82.2478 0003247 237.2208 162.3575  1.00271402 66558
DIRECTV 11              
1 32729U 08013A   26042.21407617 -.00000118  00000+0  00000+0 0  9996
2 32729   0.0099 257.3953 0000332  62.4101 159.3257  1.00278073 44333
GALAXY 18 (G-18)        
1 32951U 08024A   26042.16579109  .00000036  00000+0  00000+0 0  9993
2 32951   0.0146  98.5665 0003184 242.6174  96.6996  1.00258509 44580
INTELSAT 25 (IS-25)     
1 33153U 08034A   26042.25677980 -.00000218  00000+0  00000+0 0  9998
2 33153   2.3822  81.9188 0004215 237.1891 243.1237  1.00270239 64435
GALAXY 19 (G-19)        
1 33376U 08045A   26042.17090444 -.00000131  00000+0  00000+0 0  9996
2 33376   0.0590 267.5817 0002937  64.8913 133.2811  1.00273631 63647
FM-5                    
1 35493U 09034A   26042.17307112 -.00000191  00000+0  00000+0 0  9996
2 35493   0.0337 273.3714 0001018 272.2156 291.7830  1.00270834 45386
INTELSAT 14 (IS-14)     
1 36097U 09064A   26042.18121784 -.00000265  00000+0  00000+0 0  9992
2 36097   0.0068  86.0728 0002210 255.7482 179.6339  1.00267814 59348
INTELSAT 15 (IS-15)     
1 36106U 09067A   26042.11086135 -.00000176  00000+0  00000+0 0  9990
2 36106   0.0166  96.4523 0002446 248.6657 281.0933  1.00271797 39961
DIRECTV 12              
1 36131U 09075A   26042.23908124 -.00000098  00000+0  00000+0 0  9994
2 36131   0.0064 318.1059 0000611 318.4169 208.1252  1.00288916 45298
INTELSAT 16 (IS-16)     
1 36397U 10006A   26042.17506447 -.00000236  00000+0  00000+0 0  9993
2 36397   0.0077  71.6984 0001912 259.4030 156.9396  1.00270854 58396
XM-5                    
1 37185U 10053A   26042.16735109 -.00000014  00000+0  00000+0 0  9993
2 37185   0.0644 272.0405 0003033 247.1665 287.0429  1.00270237 56218
INTELSAT 17 (IS-17)     
1 37238U 10065B   26042.26032160  .00000007  00000+0  00000+0 0  9994
2 37238   0.0236 195.6336 0002632 136.9396 328.4483  1.00272890 51983
INTELSAT 28 (IS-28)     
1 37392U 11016A   26042.18381785 -.00000217  00000+0  00000+0 0  9997
2 37392   1.4798  84.3081 0004143 236.8015 214.5757  1.00272954 52026
INTELSAT 18 (IS-18)     
1 37834U 11056A   26042.15452436  .00000061  00000+0  00000+0 0  9997
2 37834   0.0366 271.0959 0001732  53.8330  51.8872  1.00271589 52540
INTELSAT 22 (IS-22)     
1 38098U 12011A   26042.17525037 -.00000051  00000+0  00000+0 0  9992
2 38098   0.0166  86.6772 0001712 240.8385 308.8938  1.00276400  5925
INTELSAT 19 (IS-19)     
1 38356U 12030A   26042.14975543 -.00000048  00000+0  00000+0 0  9994
2 38356   0.0161 106.2074 0003219 233.1876  21.7181  1.00272150 49180
INTELSAT 20 (IS-20)     
1 38740U 12043A   26042.21572534 -.00000015  00000+0  00000+0 0  9990
2 38740   0.0200 110.3331 0002112  56.8742 120.1991  1.00270309 49486
INTELSAT 21 (IS-21)     
1 38749U 12045A   26042.18469051 -.00000276  00000+0  00000+0 0  9995
2 38749   0.0089 159.2552 0001763 177.0619 173.4027  1.00270900 49261
INTELSAT 23 (IS-23)     
1 38867U 12057A   26041.75172872 -.00000276  00000+0  00000+0 0  9993
2 38867   0.0542 264.5971 0001239  51.0480  42.7909  1.00275329 48688
FM-6                    
1 39360U 13058A   26042.16709109 -.00000008  00000+0  00000+0 0  9992
2 39360   0.0255 105.9936 0002923  77.6360 261.5364  1.00268556 44809
INTELSAT 30 (IS-30)     
1 40271U 14062A   26042.23804296 -.00000142  00000+0  00000+0 0  9991
2 40271   0.0139  68.0021 0001513  32.7420  31.1802  1.00271096  5538
DIRECTV 14              
1 40333U 14078B   26042.02781704 -.00000117  00000+0  00000+0 0  9994
2 40333   0.0160  94.1928 0000546  51.1450 266.5162  1.00272337 40777
DIRECTV 15              
1 40663U 15026A   26042.23908108 -.00000094  00000+0  00000+0 0  9990
2 40663   0.0152  95.1528 0000443  60.0908 329.2255  1.00270529 39201
SKY MEXICO-1            
1 40664U 15026B   26042.17454446 -.00000226  00000+0  00000+0 0  9992
2 40664   0.0043 150.2485 0001921 187.0259 148.0180  1.00271222 39190
INTELSAT 34 (IS-34)     
1 40874U 15039A   26042.18338524 -.00000277  00000+0  00000+0 0  9994
2 40874   0.0017 109.0466 0000067 294.2296 108.4809  1.00270442 38366
INTELSAT 31 (IS-31)     
1 41581U 16035A   26041.95735668 -.00000142  00000+0  00000+0 0  9992
2 41581   0.0357 258.1296 0001757 318.0114 174.4379  1.00270734 35419
INTELSAT 36 (IS-36)     
1 41747U 16053A   26042.21572534 -.00000016  00000+0  00000+0 0  9997
2 41747   0.0121  60.9709 0001068 270.4788 315.9694  1.00271834 34696
INTELSAT 32E (IS-32E)   
1 41945U 17007B   26042.15392104 -.00000261  00000+0  00000+0 0  9995
2 41945   0.0134  98.2757 0000813 287.4676 127.6862  1.00269930 32965
INTELSAT 35E (IS-35E)   
1 42818U 17041A   26042.18329785 -.00000230  00000+0  00000+0 0  9997
2 42818   0.0116 160.1292 0002370 174.1258 198.4488  1.00271958 31553
INTELSAT 37E (IS-37E)   
1 42950U 17059A   26042.18659119 -.00000132  00000+0  00000+0 0  9991
2 42950   0.0156 107.0532 0002290 209.1201 234.2259  1.00272362 30801
AZERSPACE 2 (IS-38)     
1 43632U 18074A   26042.19907127  .00000145  00000+0  00000+0 0  9996
2 43632   0.0154  99.7488 0001407 235.5379 282.7272  1.00271884 27180
HORIZONS-3E             
1 43633U 18074B   26041.79575561 -.00000022  00000+0  00000+0 0  9990
2 43633   0.0386 268.6256 0000549  61.7267 265.9647  1.00273275 27072
AT&T T-16               
1 44333U 19034A   26042.17012444 -.00000106  00000+0  00000+0 0  9997
2 44333   0.0222  91.7721 0000808  51.1014 318.7094  1.00270854 24375
INTELSAT 39 (IS-39)     
1 44476U 19049B   26042.20615369  .00000042  00000+0  00000+0 0  9998
2 44476   0.0125 108.6754 0001106  31.6877 137.0417  1.00270754 23864
GALAXY 30 (G-30)        
1 46114U 20056C   26042.27682977  .00000045  00000+0  00000+0 0  9998
2 46114   0.0146  94.4694 0001970 244.0601 137.4460  1.00272895 20033
GALAXY 33 (G-33)        
1 54026U 22128A   26042.21792935  .00000087  00000+0  00000+0 0  9997
2 54026   0.0157  88.8463 0001800 240.7934 117.0859  1.00273245 12476
GALAXY 34 (G-34)        
1 54027U 22128B   26042.28835229  .00000067  00000+0  00000+0 0  9997
2 54027   0.0141  85.8872 0001560 237.1988 153.0568  1.00273736 12655
GALAXY 31 (G-31)        
1 54243U 22153A   26042.15389248  .00000022  00000+0  00000+0 0  9997
2 54243   0.0133 129.2023 0001393 212.7304  93.6694  1.00272726  5864
GALAXY 32 (G-32)        
1 54244U 22153B   26042.21766370 -.00000166  00000+0  00000+0 0  9990
2 54244   0.0117  61.5493 0002803 285.5821 141.4929  1.00271668 11881
GALAXY 35 (G-35)        
1 54741U 22170A   26042.17168444 -.00000153  00000+0  00000+0 0  9990
2 54741   0.0097 133.9692 0001914 196.9843 138.9449  1.00270586 11635
GALAXY 36 (G-36)        
1 54742U 22170B   26042.15371634 -.00000177  00000+0  00000+0 0  9992
2 54742   0.0237 198.8167 0001723 195.8672  72.8536  1.00272009 11517
GALAXY 37 (G-37)        
1 57493U 23112A   26042.16501109  .00000057  00000+0  00000+0 0  9994
2 57493   0.0047 305.2589 0001969  26.6983 101.6599  1.00272052  9270
